{
"type": "FeatureCollection",
"name": "黄色边界面要素",
"features": [
{ "type": "Feature", "properties": { "ID": 1, "NAME": "黄色边界区域", "AREA": 250573.0, "PERIMETER": 3012.08, "VERTICES": 102, "SOURCE": "手动处理.jpg", "TYPE": "BOUNDARY_POLYGON" }, "geometry": { "type": "Polygon", "coordinates": [ [ [ 395.0, 956.0 ], [ 412.0, 965.0 ], [ 441.0, 949.0 ], [ 463.0, 946.0 ], [ 465.0, 943.0 ], [ 453.0, 921.0 ], [ 449.0, 906.0 ], [ 453.0, 889.0 ], [ 473.0, 863.0 ], [ 471.0, 852.0 ], [ 487.0, 844.0 ], [ 496.0, 830.0 ], [ 506.0, 839.0 ], [ 514.0, 835.0 ], [ 528.0, 838.0 ], [ 535.0, 833.0 ], [ 543.0, 832.0 ], [ 557.0, 846.0 ], [ 568.0, 846.0 ], [ 572.0, 835.0 ], [ 582.0, 824.0 ], [ 579.0, 811.0 ], [ 584.0, 803.0 ], [ 584.0, 794.0 ], [ 575.0, 780.0 ], [ 575.0, 762.0 ], [ 567.0, 750.0 ], [ 504.0, 722.0 ], [ 464.0, 700.0 ], [ 402.0, 658.0 ], [ 376.0, 631.0 ], [ 371.0, 618.0 ], [ 372.0, 594.0 ], [ 396.0, 466.0 ], [ 442.0, 420.0 ], [ 486.0, 416.0 ], [ 505.0, 404.0 ], [ 523.0, 387.0 ], [ 537.0, 380.0 ], [ 547.0, 379.0 ], [ 618.0, 397.0 ], [ 642.0, 400.0 ], [ 662.0, 412.0 ], [ 678.0, 409.0 ], [ 699.0, 398.0 ], [ 709.0, 384.0 ], [ 721.0, 352.0 ], [ 731.0, 337.0 ], [ 738.0, 309.0 ], [ 743.0, 301.0 ], [ 746.0, 277.0 ], [ 755.0, 266.0 ], [ 757.0, 254.0 ], [ 769.0, 239.0 ], [ 770.0, 210.0 ], [ 775.0, 203.0 ], [ 770.0, 185.0 ], [ 730.0, 176.0 ], [ 690.0, 175.0 ], [ 675.0, 171.0 ], [ 639.0, 170.0 ], [ 635.0, 167.0 ], [ 616.0, 171.0 ], [ 587.0, 191.0 ], [ 552.0, 195.0 ], [ 522.0, 192.0 ], [ 486.0, 180.0 ], [ 407.0, 180.0 ], [ 369.0, 158.0 ], [ 361.0, 150.0 ], [ 348.0, 116.0 ], [ 343.0, 110.0 ], [ 325.0, 109.0 ], [ 270.0, 219.0 ], [ 239.0, 244.0 ], [ 172.0, 286.0 ], [ 151.0, 312.0 ], [ 144.0, 330.0 ], [ 140.0, 377.0 ], [ 135.0, 400.0 ], [ 120.0, 441.0 ], [ 92.0, 443.0 ], [ 71.0, 453.0 ], [ 56.0, 447.0 ], [ 51.0, 450.0 ], [ 42.0, 485.0 ], [ 52.0, 492.0 ], [ 68.0, 497.0 ], [ 86.0, 511.0 ], [ 109.0, 520.0 ], [ 166.0, 563.0 ], [ 185.0, 584.0 ], [ 222.0, 674.0 ], [ 237.0, 756.0 ], [ 252.0, 771.0 ], [ 310.0, 799.0 ], [ 330.0, 818.0 ], [ 341.0, 833.0 ], [ 358.0, 867.0 ], [ 370.0, 896.0 ], [ 376.0, 920.0 ], [ 395.0, 956.0 ] ] ] } }
]
}
